QIANFAN-1               
1 60379U 24140A   26001.76411543  .00000201  00000+0  29220-3 0  9996
2 60379  88.9775 297.2097 0017810 151.1819 209.0320 13.50982780 70051
QIANFAN-2               
1 60380U 24140B   26001.79304277  .00000191  00000+0  27699-3 0  9992
2 60380  88.9762 297.0433 0013917 122.9175 237.3317 13.50986611 70110
QIANFAN-3               
1 60381U 24140C   26001.80120314  .00000206  00000+0  29936-3 0  9996
2 60381  88.9754 297.1735 0014694 135.1100 225.1242 13.50987177 70025
QIANFAN-4               
1 60382U 24140D   26001.77644223  .00000200  00000+0  29122-3 0  9994
2 60382  88.9779 297.0788 0014076 125.4656 234.7811 13.50982843 70148
QIANFAN-5               
1 60383U 24140E   26001.75186382  .00000202  00000+0  29448-3 0  9993
2 60383  88.9754 297.2040 0015614 146.5166 213.6975 13.50984871 70009
QIANFAN-6               
1 60384U 24140F   26001.77244713  .00000213  00000+0  31141-3 0  9994
2 60384  88.9781 296.9535 0014044 131.0606 229.1761 13.50985166 70204
QIANFAN-7               
1 60385U 24140G   26001.79019147  .00001469  00000+0  58985-3 0  9997
2 60385  88.9793 291.3686 0014806 343.8231  16.2489 14.27686053 73255
QIANFAN-8               
1 60386U 24140H   26001.78074002  .00000262  00000+0  38695-3 0  9994
2 60386  88.9782 297.1904 0017424 134.4780 225.7799 13.50986668 70059
